#dP2024  2 20 18  0  0.00000000      96 __u+U IGS20 EXT  IAC
## 2302 237600.00000000   900.00000000 60360 0.7500000000000
+  118   C06C07C08C09C10C11C12C13C14C16C19C20C21C22C23C24C25
+        C26C27C28C29C30C32C33C34C35C36C37C38C39C40C41C42C43
+        C44C45C46E02E03E04E05E07E08E09E10E11E12E13E14E15E18
+        E19E21E24E25E26E27E30E31E33E34E36G01G02G03G04G05G06
+        G07G08G09G10G11G12G13G14G15G16G17G18G19G20G21G22G23
+        G24G25G26G27G28G29G30G31G32J02J04R01R02R03R04R05R07
+        R08R09R11R12R13R14R15R16R17R18R19R20R21R22R24R26  0
++         8 10 11 10  9  8  9 10  8  7 10  9  7  9  9 10 10
++         9  9  8 10 10  9  8  9  7 10  9 10 10 10  8  7  9
++         7  9  8  8  8  8  7  8  9  8  7  7  8  8  8  8  8
++         7  7  7  7  8  8  8  7  8  8  7  8  8  7  8  7  8
++         8  8  8  8  8  7  7  7  8  8  7  8  8  8  9  7  8
++         7  7  8  7  7  8  8  8  7  9  9  8  9  8  8  9  8
++         8  8  8  8  9  8  8  8  7  9 10 11 10  8  8  8  0
%c M  cc GPS ccc cccc cccc cccc cccc ccccc ccccc ccccc ccccc
%c cc cc ccc ccc cccc cccc cccc cccc ccccc ccccc ccccc ccccc
%f  0.0000000  0.000000000  0.00000000000  0.000000000000000
%f  0.0000000  0.000000000  0.00000000000  0.000000000000000
%i    0    0    0    0      0      0      0      0         0
%i    0    0    0    0      0      0      0      0         0
/* IAC                                ULTRA-RAPID PREDICTION
/* S/V CLOCKS ARE ALIGNED TO GNSS TIME                      
/* G:C1WC2W R:C1PC2P E:C1XC5X C:C2IC6I J:C1CC2S             
/* PCV:IGS20_2290 OL/AL:FES2004  NONE     YN ORB:CoN CLK:CoN
*  2024 02 21  4 15  0.00000000
PC06 -18450.189469  33989.958645  16492.455993    123.893793
PC07  -3973.070753  36937.605775  20199.377015   -835.442755
PC08  -7930.836102  18939.900893 -36828.036344     22.031244
PC09 -11267.295747  32639.890570  24201.476984   -518.746050
PC10   2286.791759  39739.592734  15024.477109     76.421371
PC11  17432.461793 -20114.496076  -8307.879186    421.507543
PC12  17603.378273  -2569.351911 -21462.447120    764.970904
PC13   1535.716256  22240.151550 -35584.754236    419.154971
PC14  11059.247955 -11509.848772  22902.454065    237.361407
PC16 -20472.436170  33757.371762  14570.758633   -352.120665
PC19  -3409.476376  19306.812688 -19839.865328   -924.946647
PC20 -15842.286197   3705.671565 -22653.002703   -183.305883
PC21  19797.392029  15677.951369  11923.721066   -961.809275
PC22  11675.882814  24765.575193  -5466.565801   -102.031631
PC23  -6227.388833 -15730.772182 -22198.053184   -779.814430
PC24  27117.199812  -4757.426506  -4498.109078    903.843556
PC25  13890.347727 -14896.292845 -19081.836400    331.269703
PC26  24155.614192   6859.199157  12116.623311   -252.181786
PC27 -14341.802028  -7063.168885  22853.905262    274.166705
PC28  -2706.402039 -21515.021354  17572.308413    208.676527
PC29 -11892.716180  25241.336927     89.797991    244.610943
PC30 -18699.233463  12110.913613  16782.014032    -27.821981
PC32 -19888.165384 -15589.569639 -11804.195168   -570.829629
PC33   3439.176522 -19244.924239  19913.976843   -950.472425
PC34  18648.629186 -13608.227714 -15708.193044    373.914175
PC35   3506.945824  21468.209813 -17469.322240    428.732055
PC36 -14733.555885  14421.820317  18825.280721     -7.503970
PC37 -23764.199030  -7668.981009 -12482.666383   -937.798907
PC38 -16812.083862  18530.336878 -33904.697405    138.124515
PC39 -23659.050874  33962.871185   7424.469510     -7.229045
PC40  -7959.221827  33848.068327  24028.220786    -57.424196
PC41 -11138.124023 -24796.684371   6334.955193   -893.836148
PC42  16745.293591  -2046.014389  22282.310320   -452.560943
PC43  12491.631421 -24950.374049  -1004.146669     61.252304
PC44  14685.151390   6714.073784 -22773.859218    390.834853
PC45   6384.179653  15584.555012  22237.507588    -71.410253
PC46 -26910.763558   5212.249251   5336.159839   -125.552160
PE02   -141.170071 -18591.338510 -23049.308209    105.121230
PE03   3112.758580 -29124.745240   4232.947311    -95.230109
PE04   9720.261069  24147.726163  14101.524532   -332.206720
PE05  13929.654372 -17029.591892  19807.602671   4722.035170
PE07 -16625.375347  -5569.658959 -23840.376569   -104.886841
PE08  -9249.135735 -24616.779036 -13577.347361   -227.184573
PE09  16476.353679   5720.402657  23921.644318   -343.640680
PE10  18505.413105   5929.414335 -22330.482814   -603.566078
PE11  24962.558640  -2483.706746 -15733.971903   3233.650367
PE12  10092.703700  12675.736196 -24770.871098   -915.425585
PE13 -24626.681879   1989.165841  16299.259723    -20.256606
PE14  17603.122243  -8667.224004 -20347.389104     45.375936
PE15  -9478.565122 -12971.833078  24870.115810    -86.993840
PE18 -10554.823945  25460.962225  10615.502227    350.656582
PE19  -4653.624900  28535.158120  -6328.905047   -574.640164
PE21 -18325.549911   6963.002764  22170.442611   -580.100727
PE24  26856.079774   9529.058700  -7983.256390   -609.885307
PE25  18622.879568  -6667.581125 -22021.283416      1.163024
PE26 -24883.774967  15860.987955  -2270.042945    374.878564
PE27 -26882.151653  -9212.965477   8302.979380   -279.995517
PE30 -19248.744132 -19914.103554 -10486.051468    -18.678742
PE31  19485.795469  19757.997579  10287.907608    -16.488817
PE33 -11530.970637  20136.275763 -18368.815317      7.911356
PE34  10949.842894 -20125.845456  18741.323398    -95.811311
PE36  25139.960885 -15553.884215   1669.657460   -188.866853
PG01  -2384.878058  16861.916709 -20631.655458    170.419966
PG02 -10258.036004  19378.467933 -14311.976656   -482.178107
PG03   2418.029864  17023.358280 -20421.984813    206.413897
PG04  -1890.764103  26355.619212  -1799.741090    296.855003
PG05  10898.943759 -10972.822290  21430.451658   -162.598878
PG06  23114.271932  -3770.518416 -12562.484830    398.785340
PG07  10516.725066  11893.422192  21820.447409    -66.929050
PG08  -6330.664737  23357.892391  10333.940189   -168.033095
PG09   8102.092360  22991.175605  10396.879480     99.194519
PG10 -24194.704081 -10569.911195  -3994.194748      1.099905
PG11  23828.787554 -11601.709983  -1276.609629   -582.813053
PG12   -416.399027 -17312.960987 -20443.668798   -480.031465
PG13  13113.131872 -16407.947948  15917.265830    627.443857
PG14  23111.258858  13283.717836   -654.000113    331.233192
PG15   3487.394050 -24102.529659   9855.993838    129.876260
PG16 -17022.393358   4895.745810  19598.020428   -358.041296
PG17  12619.206454  12408.513096 -19332.646023    716.311398
PG18 -11023.743324 -10681.187525  21709.371182   -560.124164
PG19  14914.256999   2624.126464 -22017.082344    443.587339
PG20  21483.489313  -3831.292147  15091.183458    386.711854
PG21 -14314.896730  19038.126720 -10153.987297    134.167302
PG22  23256.874536   9167.318577  -8101.125804     27.812672
PG23 -19562.413449 -16310.257832   7892.573277    160.672532
PG24  10951.481412 -20194.090880 -13378.546038   -435.100309
PG25 -12067.193815 -18728.184373 -14998.450802    489.210707
PG26 -23840.744384  -1386.182321  11850.861831    187.968263
PG27 -12782.621236  13221.173276  18723.234199     -5.839413
PG28 -22032.237740   1858.460110 -14731.660154   -138.164029
PG29  -4726.229882 -24363.588001   9267.688033   -606.545680
PG30  19541.215047   3770.272539  17843.665419   -429.826159
PG31 -24579.121281   8624.542054  -6397.848142   -227.833731
PG32 -14423.336628  -8605.973930 -20422.030771   -612.703771
PJ02 -27634.420930  20857.762378  29173.735734     -2.177241
PJ04 -18777.471726  26692.152347 -21597.507961     50.865787
PR01  -7469.749528   9446.065047 -22482.132189     77.718192
PR02   2713.581918  22049.706674 -12424.488412    -22.514089
PR03  11687.579096  22141.453834   4769.931563     94.911833
PR04  13672.235072  10318.318121  18929.614976    224.329591
PR05   8570.248869  -7152.623502  22953.744493    127.234546
PR07 -11912.806083 -21900.131969  -5478.080043     76.275901
PR08 -13797.609143 -10046.821490 -18906.284765    -74.492899
PR09   3355.945606 -11019.788489 -22749.140888    171.146465
PR11 -24723.301023  -4761.628355  -4037.085553     33.650489
PR12 -20394.432689   4604.109414  14641.653409     36.964849
PR13  -6043.548453  10248.542385  22542.777434    -44.561136
PR14  15019.828478  10424.119181  17800.664264     26.084349
PR15  25017.281143   4299.846084   2546.743286     82.005446
PR16  20569.266667  -4473.202677 -14428.464803     23.430559
PR17   2875.908950  12673.686427 -21945.497743     62.957249
PR18  13772.911484  -1889.107382 -21383.805340    128.448913
PR19  18193.146675 -13804.975805 -11364.054651   -266.613054
PR20  11749.109319 -20554.514474   9567.234978   -108.599041
PR21  -2941.392038 -12427.630967  22078.906660    -78.643416
PR22 -14614.219252   2161.240948  20817.589795    109.127276
PR24 -10373.041426  21060.335346  -9968.063854    -44.769898
PR26 -13949.247030 -10809.521607 -18384.047788   -197.340945
EOF
